[
    {
        "Altitude(m)": 558436.865753007,
        "Argument of Periapsis(deg)": 0.0,
        "Eccentricity": 0.0,
        "Inclination(deg)": 53.0,
        "Latitude(deg)": 46.73401460394156,
        "Longitude(deg)": 167.2600682916058,
        "Mean Anomaly(deg)": 114.5455,
        "RAAN(deg)": 140.0,
        "Satellite Name": "Starlink Shell 1 623",
        "Satellite Number": 623,
        "Semi-Major Axis(m)": 6931778.249405717,
        "Time(s)": 0
    },
    {
        "Altitude(m)": 558367.3169004063,
        "Argument of Periapsis(deg)": 0.00034857847951123687,
        "Eccentricity": 0.0,
        "Inclination(deg)": 53.0,
        "Latitude(deg)": 46.42793677016436,
        "Longitude(deg)": 168.01309169338793,
        "Mean Anomaly(deg)": 115.17233120355674,
        "RAAN(deg)": 139.99948122992254,
        "Satellite Name": "Starlink Shell 1 623",
        "Satellite Number": 623,
        "Semi-Major Axis(m)": 6931778.249405717,
        "Time(s)": 10
    },
    {
        "Altitude(m)": 558296.6342916454,
        "Argument of Periapsis(deg)": 0.0006971569590224737,
        "Eccentricity": 0.0,
        "Inclination(deg)": 53.0,
        "Latitude(deg)": 46.11638866141085,
        "Longitude(deg)": 168.75720231377562,
        "Mean Anomaly(deg)": 115.79916240711343,
        "RAAN(deg)": 139.99896245984502,
        "Satellite Name": "Starlink Shell 1 623",
        "Satellite Number": 623,
        "Semi-Major Axis(m)": 6931778.249405717,
        "Time(s)": 20
    },
    {
        "Altitude(m)": 558224.8618146131,
        "Argument of Periapsis(deg)": 0.0010457354385337105,
        "Eccentricity": 0.0,
        "Inclination(deg)": 53.0,
        "Latitude(deg)": 45.79948893372992,
        "Longitude(deg)": 169.4924433592108,
        "Mean Anomaly(deg)": 116.42599361067016,
        "RAAN(deg)": 139.99844368976758,
        "Satellite Name": "Starlink Shell 1 623",
        "Satellite Number": 623,
        "Semi-Major Axis(m)": 6931778.249405717,
        "Time(s)": 30
    },
    {
        "Altitude(m)": 558152.0441161717,
        "Argument of Periapsis(deg)": 0.0013943139180449475,
        "Eccentricity": 0.0,
        "Inclination(deg)": 53.0,
        "Latitude(deg)": 45.47735493817808,
        "Longitude(deg)": 170.21886641977167,
        "Mean Anomaly(deg)": 117.05282481422682,
        "RAAN(deg)": 139.99792491969012,
        "Satellite Name": "Starlink Shell 1 623",
        "Satellite Number": 623,
        "Semi-Major Axis(m)": 6931778.249405717,
        "Time(s)": 40
    },
    {
        "Altitude(m)": 558078.226579955,
        "Argument of Periapsis(deg)": 0.0017428923975561844,
        "Eccentricity": 0.0,
        "Inclination(deg)": 53.0,
        "Latitude(deg)": 45.1501026314081,
        "Longitude(deg)": 170.93652993380908,
        "Mean Anomaly(deg)": 117.67965601778357,
        "RAAN(deg)": 139.99740614961263,
        "Satellite Name": "Starlink Shell 1 623",
        "Satellite Number": 623,
        "Semi-Major Axis(m)": 6931778.249405717,
        "Time(s)": 50
    },
    {
        "Altitude(m)": 558003.4553037422,
        "Argument of Periapsis(deg)": 0.002091470877067421,
        "Eccentricity": 0.0,
        "Inclination(deg)": 53.0,
        "Latitude(deg)": 44.81784649555103,
        "Longitude(deg)": 171.64549917819386,
        "Mean Anomaly(deg)": 118.3064872213403,
        "RAAN(deg)": 139.99688737953514,
        "Satellite Name": "Starlink Shell 1 623",
        "Satellite Number": 623,
        "Semi-Major Axis(m)": 6931778.249405717,
        "Time(s)": 60
    },
    {
        "Altitude(m)": 557927.7770764905,
        "Argument of Periapsis(deg)": 0.0024400493565786582,
        "Eccentricity": 0.0,
        "Inclination(deg)": 53.0,
        "Latitude(deg)": 44.480699466996846,
        "Longitude(deg)": 172.34584627276567,
        "Mean Anomaly(deg)": 118.93331842489701,
        "RAAN(deg)": 139.9963686094577,
        "Satellite Name": "Starlink Shell 1 623",
        "Satellite Number": 623,
        "Semi-Major Axis(m)": 6931778.249405717,
        "Time(s)": 70
    },
    {
        "Altitude(m)": 557851.2393549652,
        "Argument of Periapsis(deg)": 0.002788627836089895,
        "Eccentricity": 0.0,
        "Inclination(deg)": 53.0,
        "Latitude(deg)": 44.13877287366641,
        "Longitude(deg)": 173.03764868733774,
        "Mean Anomaly(deg)": 119.56014962845371,
        "RAAN(deg)": 139.99584983938018,
        "Satellite Name": "Starlink Shell 1 623",
        "Satellite Number": 623,
        "Semi-Major Axis(m)": 6931778.249405717,
        "Time(s)": 80
    },
    {
        "Altitude(m)": 557773.890240035,
        "Argument of Periapsis(deg)": 0.0031372063156011316,
        "Eccentricity": 0.0,
        "Inclination(deg)": 53.0,
        "Latitude(deg)": 43.792176380347094,
        "Longitude(deg)": 173.72098927801082,
        "Mean Anomaly(deg)": 120.18698083201042,
        "RAAN(deg)": 139.99533106930275,
        "Satellite Name": "Starlink Shell 1 623",
        "Satellite Number": 623,
        "Semi-Major Axis(m)": 6931778.249405717,
        "Time(s)": 90
    },
    {
        "Altitude(m)": 557695.7784525861,
        "Argument of Periapsis(deg)": 0.0034857847951123688,
        "Eccentricity": 0.0,
        "Inclination(deg)": 53.0,
        "Latitude(deg)": 43.441017941670104,
        "Longitude(deg)": 174.39595634071924,
        "Mean Anomaly(deg)": 120.81381203556715,
        "RAAN(deg)": 139.99481229922526,
        "Satellite Name": "Starlink Shell 1 623",
        "Satellite Number": 623,
        "Semi-Major Axis(m)": 6931778.249405717,
        "Time(s)": 100
    },
    {
        "Altitude(m)": 557616.9533091562,
        "Argument of Periapsis(deg)": 0.003834363274623606,
        "Eccentricity": 0.0,
        "Inclination(deg)": 53.0,
        "Latitude(deg)": 43.08540376230287,
        "Longitude(deg)": 175.0626421697432,
        "Mean Anomaly(deg)": 121.4406432391239,
        "RAAN(deg)": 139.9942935291478,
        "Satellite Name": "Starlink Shell 1 623",
        "Satellite Number": 623,
        "Semi-Major Axis(m)": 6931778.249405717,
        "Time(s)": 110
    },
    {
        "Altitude(m)": 557537.4646971772,
        "Argument of Periapsis(deg)": 0.004182941754134842,
        "Eccentricity": 0.0,
        "Inclination(deg)": 53.0,
        "Latitude(deg)": 42.725438263925035,
        "Longitude(deg)": 175.7211431473694,
        "Mean Anomaly(deg)": 122.06747444268063,
        "RAAN(deg)": 139.9937747590703,
        "Satellite Name": "Starlink Shell 1 623",
        "Satellite Number": 623,
        "Semi-Major Axis(m)": 6931778.249405717,
        "Time(s)": 120
    },
    {
        "Altitude(m)": 557457.3630499414,
        "Argument of Periapsis(deg)": 0.004531520233646079,
        "Eccentricity": 0.0,
        "Inclination(deg)": 53.0,
        "Latitude(deg)": 42.36122405856905,
        "Longitude(deg)": 176.3715598521002,
        "Mean Anomaly(deg)": 122.6943056462373,
        "RAAN(deg)": 139.99325598899287,
        "Satellite Name": "Starlink Shell 1 623",
        "Satellite Number": 623,
        "Semi-Major Axis(m)": 6931778.249405717,
        "Time(s)": 130
    },
    {
        "Altitude(m)": 557376.6993212604,
        "Argument of Periapsis(deg)": 0.0048800987131573164,
        "Eccentricity": 0.0,
        "Inclination(deg)": 53.0,
        "Latitude(deg)": 41.99286192791185,
        "Longitude(deg)": 177.01399567267296,
        "Mean Anomaly(deg)": 123.32113684979399,
        "RAAN(deg)": 139.99273721891535,
        "Satellite Name": "Starlink Shell 1 623",
        "Satellite Number": 623,
        "Semi-Major Axis(m)": 6931778.249405717,
        "Time(s)": 140
    },
    {
        "Altitude(m)": 557295.5249598174,
        "Argument of Periapsis(deg)": 0.005228677192668553,
        "Eccentricity": 0.0,
        "Inclination(deg)": 53.0,
        "Latitude(deg)": 41.620450808107385,
        "Longitude(deg)": 177.64855695364187,
        "Mean Anomaly(deg)": 123.9479680533507,
        "RAAN(deg)": 139.99221844883792,
        "Satellite Name": "Starlink Shell 1 623",
        "Satellite Number": 623,
        "Semi-Major Axis(m)": 6931778.249405717,
        "Time(s)": 150
    },
    {
        "Altitude(m)": 557213.8918832497,
        "Argument of Periapsis(deg)": 0.00557725567217979,
        "Eccentricity": 0.0,
        "Inclination(deg)": 53.0,
        "Latitude(deg)": 41.2440877797673,
        "Longitude(deg)": 178.27535315954393,
        "Mean Anomaly(deg)": 124.57479925690748,
        "RAAN(deg)": 139.99169967876043,
        "Satellite Name": "Starlink Shell 1 623",
        "Satellite Number": 623,
        "Semi-Major Axis(m)": 6931778.249405717,
        "Time(s)": 160
    },
    {
        "Altitude(m)": 557131.852451963,
        "Argument of Periapsis(deg)": 0.0059258341516910265,
        "Eccentricity": 0.0,
        "Inclination(deg)": 53.0,
        "Latitude(deg)": 40.8638680627087,
        "Longitude(deg)": 178.89449554457187,
        "Mean Anomaly(deg)": 125.20163046046417,
        "RAAN(deg)": 139.99118090868296,
        "Satellite Name": "Starlink Shell 1 623",
        "Satellite Number": 623,
        "Semi-Major Axis(m)": 6931778.249405717,
        "Time(s)": 170
    },
    {
        "Altitude(m)": 557049.4594426847,
        "Argument of Periapsis(deg)": 0.006274412631202263,
        "Eccentricity": 0.0,
        "Inclination(deg)": 53.0,
        "Latitude(deg)": 40.479885015095896,
        "Longitude(deg)": 179.5060973532117,
        "Mean Anomaly(deg)": 125.82846166402089,
        "RAAN(deg)": 139.99066213860547,
        "Satellite Name": "Starlink Shell 1 623",
        "Satellite Number": 623,
        "Semi-Major Axis(m)": 6931778.249405717,
        "Time(s)": 180
    }
]